{
  "type": "FeatureCollection",
  "features": [
    {
      "type": "Feature",
      "properties": {
        "norad_id": 66439,
        "name": "STARLINK-35327",
        "group": "last-30-days",
        "lat": 42.942819092463985,
        "lon": -164.36500319781658,
        "alt_km": 410.3255480262742,
        "timestamp": "2025-12-02T06:27:51.800860+00:00",
        "meta_object_name": "STARLINK-35327",
        "meta_object_id": "2025-259T",
        "meta_epoch": "2025-12-01T20:00:01.999008",
        "meta_mean_motion": 15.51428382,
        "meta_eccentricity": 0.000129,
        "meta_inclination": 42.9994,
        "meta_ra_of_asc_node": 111.0679,
        "meta_arg_of_pericenter": 278.3749,
        "meta_mean_anomaly": 252.4637,
        "meta_ephemeris_type": 0,
        "meta_classification_type": "U",
        "meta_norad_cat_id": 66439,
        "meta_element_set_no": 999,
        "meta_rev_at_epoch": 452,
        "meta_bstar": -0.023335,
        "meta_mean_motion_dot": -0.01278044,
        "meta_mean_motion_ddot": 0,
        "tle_line1": "1 66439U 25259T   25335.83335647 -.01278044  00000+0 -23335-1 0  9992",
        "tle_line2": "2 66439  42.9994 111.0679 0001290 278.3749 252.4637 15.51428382  4523"
      },
      "geometry": {
        "type": "Point",
        "coordinates": [
          -164.36500319781658,
          42.942819092463985
        ]
      }
    },
    {
      "type": "Feature",
      "properties": {
        "norad_id": 66440,
        "name": "STARLINK-35405",
        "group": "last-30-days",
        "lat": 42.728188374688884,
        "lon": -153.92345318930975,
        "alt_km": 410.43514758776746,
        "timestamp": "2025-12-02T06:27:51.800871+00:00",
        "meta_object_name": "STARLINK-35405",
        "meta_object_id": "2025-259U",
        "meta_epoch": "2025-12-01T20:00:01.999008",
        "meta_mean_motion": 15.51427835,
        "meta_eccentricity": 0.0001322,
        "meta_inclination": 42.9994,
        "meta_ra_of_asc_node": 111.0476,
        "meta_arg_of_pericenter": 280.6903,
        "meta_mean_anomaly": 257.8184,
        "meta_ephemeris_type": 0,
        "meta_classification_type": "U",
        "meta_norad_cat_id": 66440,
        "meta_element_set_no": 999,
        "meta_rev_at_epoch": 452,
        "meta_bstar": -0.023551,
        "meta_mean_motion_dot": -0.01288766,
        "meta_mean_motion_ddot": 0,
        "tle_line1": "1 66440U 25259U   25335.83335647 -.01288766  00000+0 -23551-1 0  9996",
        "tle_line2": "2 66440  42.9994 111.0476 0001322 280.6903 257.8184 15.51427835  4522"
      },
      "geometry": {
        "type": "Point",
        "coordinates": [
          -153.92345318930975,
          42.728188374688884
        ]
      }
    },
    {
      "type": "Feature",
      "properties": {
        "norad_id": 66441,
        "name": "STARLINK-35426",
        "group": "last-30-days",
        "lat": 42.52641925437592,
        "lon": -151.33560374800206,
        "alt_km": 410.4510802465129,
        "timestamp": "2025-12-02T06:27:51.800880+00:00",
        "meta_object_name": "STARLINK-35426",
        "meta_object_id": "2025-259V",
        "meta_epoch": "2025-12-01T20:00:01.999008",
        "meta_mean_motion": 15.51429453,
        "meta_eccentricity": 0.0001284,
        "meta_inclination": 42.9995,
        "meta_ra_of_asc_node": 111.0421,
        "meta_arg_of_pericenter": 280.2964,
        "meta_mean_anomaly": 260.129,
        "meta_ephemeris_type": 0,
        "meta_classification_type": "U",
        "meta_norad_cat_id": 66441,
        "meta_element_set_no": 999,
        "meta_rev_at_epoch": 452,
        "meta_bstar": -0.023611,
        "meta_mean_motion_dot": -0.01291781,
        "meta_mean_motion_ddot": 0,
        "tle_line1": "1 66441U 25259V   25335.83335647 -.01291781  00000+0 -23611-1 0  9995",
        "tle_line2": "2 66441  42.9995 111.0421 0001284 280.2964 260.1290 15.51429453  4527"
      },
      "geometry": {
        "type": "Point",
        "coordinates": [
          -151.33560374800206,
          42.52641925437592
        ]
      }
    },
    {
      "type": "Feature",
      "properties": {
        "norad_id": 66442,
        "name": "STARLINK-34724",
        "group": "last-30-days",
        "lat": 42.25961189990194,
        "lon": -148.70229171179204,
        "alt_km": 410.4944505874464,
        "timestamp": "2025-12-02T06:27:51.800890+00:00",
        "meta_object_name": "STARLINK-34724",
        "meta_object_id": "2025-259W",
        "meta_epoch": "2025-12-01T20:00:01.999008",
        "meta_mean_motion": 15.51391453,
        "meta_eccentricity": 0.0001773,
        "meta_inclination": 42.9997,
        "meta_ra_of_asc_node": 111.0386,
        "meta_arg_of_pericenter": 282.2292,
        "meta_mean_anomaly": 260.1049,
        "meta_ephemeris_type": 0,
        "meta_classification_type": "U",
        "meta_norad_cat_id": 66442,
        "meta_element_set_no": 999,
        "meta_rev_at_epoch": 452,
        "meta_bstar": -0.02082,
        "meta_mean_motion_dot": -0.01133865,
        "meta_mean_motion_ddot": 0,
        "tle_line1": "1 66442U 25259W   25335.83335647 -.01133865  00000+0 -20820-1 0  9993",
        "tle_line2": "2 66442  42.9997 111.0386 0001773 282.2292 260.1049 15.51391453  4529"
      },
      "geometry": {
        "type": "Point",
        "coordinates": [
          -148.70229171179204,
          42.25961189990194
        ]
      }
    },
    {
      "type": "Feature",
      "properties": {
        "norad_id": 66443,
        "name": "STARLINK-35219",
        "group": "last-30-days",
        "lat": 41.941047639842246,
        "lon": -146.1578275872586,
        "alt_km": 410.3794522370117,
        "timestamp": "2025-12-02T06:27:51.800903+00:00",
        "meta_object_name": "STARLINK-35219",
        "meta_object_id": "2025-259X",
        "meta_epoch": "2025-12-01T20:00:01.999008",
        "meta_mean_motion": 15.51377831,
        "meta_eccentricity": 0.000157,
        "meta_inclination": 42.9995,
        "meta_ra_of_asc_node": 111.0329,
        "meta_arg_of_pericenter": 283.8875,
        "meta_mean_anomaly": 260.368,
        "meta_ephemeris_type": 0,
        "meta_classification_type": "U",
        "meta_norad_cat_id": 66443,
        "meta_element_set_no": 999,
        "meta_rev_at_epoch": 441,
        "meta_bstar": -0.020425,
        "meta_mean_motion_dot": -0.01113846,
        "meta_mean_motion_ddot": 0,
        "tle_line1": "1 66443U 25259X   25335.83335647 -.01113846  00000+0 -20425-1 0  9992",
        "tle_line2": "2 66443  42.9995 111.0329 0001570 283.8875 260.3680 15.51377831  4419"
      },
      "geometry": {
        "type": "Point",
        "coordinates": [
          -146.1578275872586,
          41.941047639842246
        ]
      }
    },
    {
      "type": "Feature",
      "properties": {
        "norad_id": 66444,
        "name": "STARLINK-35360",
        "group": "last-30-days",
        "lat": 40.67017145829916,
        "lon": -138.76771351259114,
        "alt_km": 410.76721816207737,
        "timestamp": "2025-12-02T06:27:51.800913+00:00",
        "meta_object_name": "STARLINK-35360",
        "meta_object_id": "2025-259Y",
        "meta_epoch": "2025-12-01T20:00:01.999008",
        "meta_mean_motion": 15.51422321,
        "meta_eccentricity": 0.0001307,
        "meta_inclination": 42.9994,
        "meta_ra_of_asc_node": 111.0176,
        "meta_arg_of_pericenter": 276.8636,
        "meta_mean_anomaly": 273.1499,
        "meta_ephemeris_type": 0,
        "meta_classification_type": "U",
        "meta_norad_cat_id": 66444,
        "meta_element_set_no": 999,
        "meta_rev_at_epoch": 452,
        "meta_bstar": -0.023555,
        "meta_mean_motion_dot": -0.01288747,
        "meta_mean_motion_ddot": 0,
        "tle_line1": "1 66444U 25259Y   25335.83335647 -.01288747  00000+0 -23555-1 0  9993",
        "tle_line2": "2 66444  42.9994 111.0176 0001307 276.8636 273.1499 15.51422321  4521"
      },
      "geometry": {
        "type": "Point",
        "coordinates": [
          -138.76771351259114,
          40.67017145829916
        ]
      }
    },
    {
      "type": "Feature",
      "properties": {
        "norad_id": 66445,
        "name": "STARLINK-34698",
        "group": "last-30-days",
        "lat": 41.577273076662316,
        "lon": -143.70514711109053,
        "alt_km": 410.5573096867238,
        "timestamp": "2025-12-02T06:27:51.800923+00:00",
        "meta_object_name": "STARLINK-34698",
        "meta_object_id": "2025-259Z",
        "meta_epoch": "2025-12-01T20:00:01.999008",
        "meta_mean_motion": 15.51429222,
        "meta_eccentricity": 0.0001227,
        "meta_inclination": 42.9996,
        "meta_ra_of_asc_node": 111.0274,
        "meta_arg_of_pericenter": 273.6967,
        "meta_mean_anomaly": 272.4772,
        "meta_ephemeris_type": 0,
        "meta_classification_type": "U",
        "meta_norad_cat_id": 66445,
        "meta_element_set_no": 999,
        "meta_rev_at_epoch": 441,
        "meta_bstar": -0.023578,
        "meta_mean_motion_dot": -0.01290128,
        "meta_mean_motion_ddot": 0,
        "tle_line1": "1 66445U 25259Z   25335.83335647 -.01290128  00000+0 -23578-1 0  9995",
        "tle_line2": "2 66445  42.9996 111.0274 0001227 273.6967 272.4772 15.51429222  4417"
      },
      "geometry": {
        "type": "Point",
        "coordinates": [
          -143.70514711109053,
          41.577273076662316
        ]
      }
    }
  ]
}